#dP2022  5  1  6  0  0.00000000      96 __u+U ITR00 EXT  IAC
## 2208  21600.00000000   900.00000000 59700 0.2500000000000
+  117   C06C07C08C09C10C11C12C13C14C16C19C20C21C22C23C24C25
+        C26C27C28C29C30C32C33C34C35C36C37C38C39C40C41C42C43
+        C44C45C46E01E02E03E04E05E07E08E09E10E11E12E13E14E15
+        E18E19E21E24E25E26E27E30E31E33E34E36G01G02G03G04G05
+        G06G07G08G09G10G11G12G13G14G15G16G17G18G19G20G21G22
+        G23G24G25G26G27G28G29G30G31G32J02J03R01R02R03R04R05
+        R07R08R09R11R12R13R14R15R17R18R19R20R21R22R24  0  0
++        10 11  9 10  9 10  9 10  9 10  9  8  9  9  8 10  8
++         9  8  9  9  9 10  8  9  9  9  9  9  9  9  8  8  9
++         9  8  8  8  7  9  9  9  8  8  8  8  8  8  9  9  8
++         8  8  8  8  8  8  8  8  8  8  8  9  8  8  8  8  8
++         8 10  8  8  9  9  7  8  8  8  8  8  9  9  8  9  8
++         8  7  7  7  8  8  8  8  9  8 10 10  0  9  8  9  8
++         8  9  9  8  8  8 10 10 10 10  9  9  8 10 10  0  0
%c M  cc GPS ccc cccc cccc cccc cccc ccccc ccccc ccccc ccccc
%c cc cc ccc ccc cccc cccc cccc cccc ccccc ccccc ccccc ccccc
%f  0.0000000  0.000000000  0.00000000000  0.000000000000000
%f  0.0000000  0.000000000  0.00000000000  0.000000000000000
%i    0    0    0    0      0      0      0      0         0
%i    0    0    0    0      0      0      0      0         0
/* IAC                                ULTRA-RAPID PREDICTION
/* S/V CLOCKS ARE ALIGNED TO GNSS TIME                      
/* G:C1WC2W R:C1PC2P E:C1XC5X C:C2IC6I J:C1CC2S             
/* PCV:IGS14_2196 OL/AL:FES2004  NONE     YN ORB:CoN CLK:CoN
*  2022 05 01 19 30  0.00000000
PC06  -5156.613211  24555.046855  33928.494511    -99.282744
PC07 -18296.656899  34487.180583 -16134.456926   -111.397485
PC08  -4169.088089  38713.561285 -16000.656793    290.104391
PC09   5016.276437  27945.961693  31680.010685   -747.872944
PC10 -11153.729050  34465.333419 -21711.323243    134.176297
PC11  -1319.368776  15786.365174 -22911.432036    326.047045
PC12 -19273.956237   5830.839555 -19293.644112   -622.073567
PC13   1520.290870  41244.807925  -7749.541469    -44.949411
PC14 -10438.909648  21407.846646  14619.099045    466.265543
PC16  -7932.760083  22955.903233  34650.030375    126.500557
PC19    894.519811 -18846.483616 -20520.611260    873.611239
PC20  16965.680599 -20662.501813  -7915.996217   -898.191556
PC21 -23895.068896  10149.822285 -10249.333017   -213.099779
PC22 -16388.300377  -6047.730357 -21761.676675   -973.415983
PC23  14484.446373  17315.616400 -16401.568443   -930.536957
PC24  -8567.001507  21081.080773  16129.022959   -959.132986
PC25   5563.849862  27313.357573  -1096.657869   -742.882256
PC26 -15720.391898   4243.801230  22650.289918    743.897061
PC27  24758.670980    469.800024  12861.571029    716.548524
PC28  24421.670845  12905.138720  -3977.168407     61.789788
PC29 -10086.218414 -17713.785298  19045.516013    548.891615
PC30  11090.191007 -12481.232365  22353.724222    497.838197
PC32  23811.041625 -10237.013570  10345.045654   -962.639285
PC33   -861.158753  18940.548958  20494.538692   -966.006773
PC34 -10024.244168  13060.760345 -22542.750722   -413.105417
PC35 -24415.837627 -12550.609654   4886.758340    254.422572
PC36  -4600.018228 -27519.198616    614.763143   -963.812767
PC37  16029.237793  -2595.141404 -22681.870625   -916.553475
PC38  -9151.778282  34915.363438 -21652.483551    229.111660
PC39 -14070.715026  20265.937685  34205.941862     34.968451
PC40 -25613.030155  30016.689486 -15120.277037    265.506282
PC41  16066.241871   6484.727243  21931.797882   -965.912872
PC42 -17610.940341  20506.649985   7034.252780   -960.669055
PC43   9278.527613  17853.625687 -19359.192674   -926.639528
PC44 -24836.010419    382.367388 -12698.178795    645.827307
PC45 -14499.076596 -17080.659747  16649.526468    745.896575
PC46   7560.851120 -22211.224987 -15133.588701   -301.731309
PE01   1850.659366 -27100.575827  11763.697604   -613.465092
PE02  -1711.310510  27034.278564 -11919.447150    296.421813
PE03   3161.562516  16787.608674  24178.062879   -553.831132
PE04 -22654.108551  -8500.181464 -17038.679123  -1018.657726
PE05 -18554.166230  15351.438667  17223.138251   -185.623977
PE07  29168.149572  -4994.261920   -333.654080   -664.218106
PE08  22868.218057   8161.283999  16928.334793   -521.808883
PE09 -29143.056200   5207.395974    502.239319   -503.517607
PE10 -22557.436463 -12116.997000 -14857.211677   -510.252883
PE11 -20054.697213  -2202.875201 -21663.551676   3797.348053
PE12 -21292.226678 -19632.305971  -6056.663678   4635.073147
PE13  20307.409870   2922.961905  21341.968590    428.400173
PE14  25172.025084   3231.308217  -3323.467802  -1833.804973
PE15  21295.489633  19701.243339   5912.172869    748.278204
PE18 -29103.386984   7035.551382  -9703.865223  -1499.120149
PE19   -274.814193 -17048.871762 -24182.710129  -3949.190394
PE21  13881.057897 -25512.029382  -5724.898175   -731.702040
PE24 -18753.060059   7785.787387  21514.503486   -591.527478
PE25 -14013.555625  25376.357341   5978.256027   -572.402614
PE26   6749.944868 -16284.718021  23777.718167  -1095.009564
PE27  18761.205756  -9188.130930 -20975.000199   -288.976422
PE30  12000.263095  13460.757688 -23482.122003   -475.859525
PE31 -12561.161559 -12413.090188  23759.129761   -495.948470
PE33  -9711.273980 -24780.404692  12938.455894   -457.066802
PE34   9917.340940  24796.757542 -12773.319162   -514.897766
PE36  -7390.336090  15470.490848 -24131.922182   -367.582739
PG01  18377.112181   8190.440937  17228.434469    372.432718
PG02 -14663.980289 -21998.914111   2084.042029   -653.270365
PG03  16977.778242  -3006.277526  20062.287083   -228.432620
PG04  26517.817263   1124.915413   1872.404632   -171.144960
PG05 -10130.126442 -12948.091345 -20995.030993    -80.307135
PG06  -2702.033058 -22173.552721  14370.209662    287.219918
PG07  12527.180640  -8676.694115 -21344.835858    321.497517
PG08  23507.471322   6268.204939 -11109.495955    -66.244015
PG09  24098.030155  -7450.163002  -8431.381107   -339.891489
PG10 -11193.118534  23867.253833   1579.456474   -398.725152
PG11 -12750.160482 -23305.723758    346.831579    -30.872596
PG12 -15662.497689  -2127.658946  21055.759677   -208.896304
PG13 -16358.883800 -13021.995156 -16629.716470    303.982730
PG14  12928.357089 -23143.229740    418.605852   -106.075075
PG15 -24314.803982  -3981.981094 -10729.675714    -64.595498
PG16   5093.943573  17139.419754 -19758.582736   -497.023207
PG17  10701.487292 -13619.233657  20580.245168    607.358872
PG18 -12474.789217   8307.517514 -21931.640413    181.341563
PG19   2633.666031 -14550.458540  21793.584608    151.711894
PG20  -4158.610736 -21658.581962 -14960.410666    515.568125
PG21  20053.929686  15562.621752   9548.199176    160.853956
PG22    777.967853  15430.557800  22025.567578    252.246107
PG23 -16264.249256  18771.717924  -9279.232184    -18.977992
PG24 -20347.276676 -10698.773547  13349.655535    248.296727
PG25 -17957.419870  12670.543291  14428.586086    319.230737
PG26  -1981.295896  23944.747304 -11063.363029    202.647857
PG27  13548.837370  12654.144876 -19378.320493    195.169980
PG28   7509.006898 -23878.196313   9730.380816    364.712353
PG29 -24938.664715   4564.325091  -8080.458350   -509.123662
PG30   5788.810061 -17412.637759 -19037.309457   -526.180397
PG31   4111.865630  23102.969290  11852.056024   -175.816284
PG32  -7543.950616  14957.278796  20712.346182   -117.512218
PJ02 -30266.300927  27263.390063  15636.899565     -3.158746
PJ03 -26114.010158  16784.744047 -23930.727709     -1.873653
PR01 -21629.328354  13379.937929   2077.285293      8.309827
PR02  -8481.440039  14637.431501  19115.685392    517.128098
PR03   9053.836251   7394.176460  22727.456417     55.913069
PR04  21150.157623  -3909.127540  13752.572255    139.447744
PR05  21797.671298 -12960.612102  -2830.315771     92.130643
PR07  -9640.303338  -6968.030085 -22514.388204     34.555842
PR08 -21215.760838   4066.615673 -13484.221674    -64.880829
PR09   1351.915254 -25340.215352  -2151.203599     52.766733
PR11 -10730.034651  -3900.399406  22817.995270     39.985327
PR12  -8962.656752  15826.306957  17899.916599     18.225626
PR13  -2027.180936  25192.668852   3434.383598    -21.683431
PR14   6561.845341  19940.521716 -14494.255280     77.138098
PR15  10865.936972   3120.390512 -22849.008418     96.443282
PR17  18050.584632  15884.516254  -8465.345368    522.348285
PR18  22101.134006   9650.695106   8408.853916    115.433529
PR19  15362.813045   -496.012254  20352.917619   -187.448881
PR20  -2611.747275 -13335.144683  21578.695131    -69.739690
PR21 -18828.052024 -15720.410872   7035.520772   -297.806801
PR22 -21845.150359  -9229.507449  -9275.864661   -180.443121
PR24   3412.321596  13932.384433 -21078.816192     91.704662
EOF
